NORAD_CAT_ID,OBJECT_NAME,OBJECT_TYPE,EPOCH,MEAN_MOTION,ECCENTRICITY,INCLINATION,RA_OF_ASC_NODE,ARG_OF_PERICENTER,MEAN_ANOMALY,BSTAR,MEAN_MOTION_DOT,MEAN_MOTION_DDOT,TLE_LINE0,TLE_LINE1,TLE_LINE2,SEMIMAJOR_AXIS,PERIOD,APOGEE,PERIGEE,DECAYED
52659.0,STARLINK-3960,PAYLOAD,2023-01-11 01:24:37,15.08837315,0.0001626999999999,53.2203,292.9684,72.4457,287.6713,7.149800000000001e-06,-1.74e-06,0.0,0 STARLINK-3960,1 52659U 22053D   23011.05877267 -.00000174  00000-0  71498-5 0  9995,2 52659  53.2203 292.9684 0001627  72.4457 287.6713 15.08837315 37071,6917.889,95.438,540.879,538.628,0.0
52659.0,STARLINK-3960,PAYLOAD,2023-01-12 02:50:46,15.08855007,0.0001494,53.2192,288.2111,81.7985,278.3177,0.00017931,2.568e-05,0.0,0 STARLINK-3960,1 52659U 22053D   23012.11859752  .00002568  00000-0  17931-3 0  9990,2 52659  53.2192 288.2111 0001494  81.7985 278.3177 15.08855007 37239,6917.835,95.437,540.7330000000002,538.6659999999998,0.0
52659.0,STARLINK-3960,PAYLOAD,2023-01-12 18:44:39,15.08835466,0.0001723,53.2181,285.2384,85.1491,274.9698,5.018100000000001e-05,5.11e-06,0.0,0 STARLINK-3960,1 52659U 22053D   23012.78101486  .00000511  00000-0  50181-4 0  9998,2 52659  53.2181 285.2384 0001723  85.1491 274.9698 15.08835466 37339,6917.894,95.438,540.951,538.567,0.0
52659.0,STARLINK-3960,PAYLOAD,2023-01-12 21:55:26,15.08831314,0.0001274,53.2179,284.6435,90.6554,269.4585,-5.3555e-05,-1.14e-05,0.0,0 STARLINK-3960,1 52659U 22053D   23012.91349659 -.00001140  00000-0 -53555-4 0  9998,2 52659  53.2179 284.6435 0001274  90.6554 269.4585 15.08831314 37341,6917.906999999998,95.438,540.653,538.891,0.0
52659.0,STARLINK-3960,PAYLOAD,2023-01-13 10:38:30,15.08839844,0.0001119,53.2178,282.266,84.7204,275.3916,9.2577e-05,1.186e-05,0.0,0 STARLINK-3960,1 52659U 22053D   23013.44341353  .00001186  00000-0  92577-4 0  9995,2 52659  53.2178 282.2660 0001119  84.7204 275.3916 15.08839844 37427,6917.880999999999,95.438,540.52,538.972,0.0
52659.0,STARLINK-3960,PAYLOAD,2023-01-13 20:10:50,15.08830346,0.0001431,53.2181,280.4798,82.6551,277.4604,-0.00023981,-4.101e-05,0.0,0 STARLINK-3960,1 52659U 22053D   23013.84086165 -.00004101  00000-0 -23981-3 0  9990,2 52659  53.2181 280.4798 0001431  82.6551 277.4604 15.08830346 37483,6917.91,95.438,540.765,538.785,0.0
52659.0,STARLINK-3960,PAYLOAD,2023-01-14 02:32:22,15.08843487,0.0001237,53.2181,279.2907,79.7505,280.3627,-2.5683e-06,-3.29e-06,0.0,0 STARLINK-3960,1 52659U 22053D   23014.10581493 -.00000329  00000-0 -25683-5 0  9995,2 52659  53.2181 279.2907 0001237  79.7505 280.3627 15.08843487 37535,6917.87,95.437,540.59,538.879,0.0
52659.0,STARLINK-3960,PAYLOAD,2023-01-14 18:26:14,15.08829406,0.0001004999999999,53.2174,276.3177,83.3926,276.718,0.00010414,1.3699999999999998e-05,0.0,0 STARLINK-3960,1 52659U 22053D   23014.76822407  .00001370  00000-0  10414-3 0  9999,2 52659  53.2174 276.3177 0001005  83.3926 276.7180 15.08829406 37634,6917.9130000000005,95.438,540.4730000000001,539.0830000000001,0.0
52659.0,STARLINK-3960,PAYLOAD,2023-01-15 02:23:09,15.08842134,0.000164,53.218,274.8297,81.2239,278.8939,0.00017802,2.546e-05,0.0,0 STARLINK-3960,1 52659U 22053D   23015.09942012  .00002546  00000-0  17802-3 0  9995,2 52659  53.2180 274.8297 0001640  81.2239 278.8939 15.08842134 37689,6917.874,95.437,540.873,538.604,0.0
52659.0,STARLINK-3960,PAYLOAD,2023-01-15 21:27:47,15.08845738,0.0001228,53.2158,271.2645,85.3967,274.7165,0.00025995,3.852e-05,0.0,0 STARLINK-3960,1 52659U 22053D   23015.89429754  .00003852  00000-0  25995-3 0  9999,2 52659  53.2158 271.2645 0001228  85.3967 274.7165 15.08845738 37798,6917.863,95.437,540.577,538.878,0.0
52659.0,STARLINK-3960,PAYLOAD,2023-01-16 00:38:32,15.08862427,0.0001122,53.2186,270.66700000000003,93.584,266.5281,0.00037473,5.685e-05,0.0,0 STARLINK-3960,1 52659U 22053D   23016.02676858  .00005685  00000-0  37473-3 0  9994,2 52659  53.2186 270.6670 0001122  93.5840 266.5281 15.08862427 37820,6917.812,95.436,540.453,538.901,0.0
52659.0,STARLINK-3960,PAYLOAD,2023-01-16 10:10:52,15.0884298,0.0001351999999999,53.2166,268.8834,75.2963,284.8179,-1.8133e-05,-5.77e-06,0.0,0 STARLINK-3960,1 52659U 22053D   23016.42421778 -.00000577  00000-0 -18133-4 0  9997,2 52659  53.2166 268.8834 0001352  75.2963 284.8179 15.08842980 37884,6917.871,95.437,540.672,538.8009999999999,0.0
52659.0,STARLINK-3960,PAYLOAD,2023-01-16 11:46:15,15.08833591,0.0001277,53.2163,268.5876,68.027,292.0857,-0.00014014,-2.517e-05,0.0,0 STARLINK-3960,1 52659U 22053D   23016.49046198 -.00002517  00000-0 -14014-3 0  9992,2 52659  53.2163 268.5876 0001277  68.0270 292.0857 15.08833591 37883,6917.9,95.438,540.648,538.882,0.0
52659.0,STARLINK-3960,PAYLOAD,2023-01-16 18:07:49,15.08819551,0.0001137999999999,53.2171,267.3969,77.2559,282.856,-0.00018866,-3.287e-05,0.0,0 STARLINK-3960,1 52659U 22053D   23016.75543124 -.00003287  00000-0 -18866-3 0  9996,2 52659  53.2171 267.3969 0001138  77.2559 282.8560 15.08819551 37934,6917.943,95.439,540.595,539.021,0.0
52659.0,STARLINK-3960,PAYLOAD,2023-01-16 22:53:58,15.0882416,0.0001049,53.2176,266.5045,83.1142,276.9969,-0.00011809,-2.166e-05,0.0,0 STARLINK-3960,1 52659U 22053D   23016.95415086 -.00002166  00000-0 -11809-3 0  9998,2 52659  53.2176 266.5045 0001049  83.1142 276.9969 15.08824160 37951,6917.929,95.439,540.519,539.068,0.0
52659.0,STARLINK-3960,PAYLOAD,2023-01-17 02:04:44,15.08830504,0.0001159,53.2166,265.9086,85.5025,274.6099,-7.5791e-05,-1.493e-05,0.0,0 STARLINK-3960,1 52659U 22053D   23017.08662624 -.00001493  00000-0 -75791-4 0  9998,2 52659  53.2166 265.9086 0001159  85.5025 274.6099 15.08830504 37987,6917.909000000001,95.438,540.576,538.9730000000001,0.0
52659.0,STARLINK-3960,PAYLOAD,2023-01-17 14:47:49,15.08835185,0.000113,53.2167,263.53,81.377,278.735,0.0002431,3.583e-05,0.0,0 STARLINK-3960,1 52659U 22053D   23017.61655076  .00003583  00000-0  24310-3 0  9990,2 52659  53.2167 263.5300 0001130  81.3770 278.7350 15.08835185 38055,6917.895,95.438,540.5419999999999,538.9780000000001,0.0
52659.0,STARLINK-3960,PAYLOAD,2023-01-17 19:33:59,15.088387300000004,0.0001169,53.217,262.6383,74.6398,285.4723,0.0009853,0.00015427,0.0,0 STARLINK-3960,1 52659U 22053D   23017.81527497  .00015427  00000-0  98530-3 0  9992,2 52659  53.2170 262.6383 0001169  74.6398 285.4723 15.08838730 38084,6917.884,95.438,540.558,538.941,0.0
52659.0,STARLINK-3960,PAYLOAD,2023-01-17 22:44:45,15.08845465,0.0001165,53.2171,262.0437,74.1622,285.9499,0.0010869999999999,0.00017056,0.0,0 STARLINK-3960,1 52659U 22053D   23017.94775438  .00017056  00000-0  10870-2 0  9996,2 52659  53.2171 262.0437 0001165  74.1622 285.9499 15.08845465 38112,6917.8640000000005,95.437,540.535,538.923,0.0
52659.0,STARLINK-3960,PAYLOAD,2023-01-18 11:27:50,15.08859328,0.0001174,53.2171,259.6654,70.9428,289.1692,0.0011582,0.00018203,0.0,0 STARLINK-3960,1 52659U 22053D   23018.47767138  .00018203  00000-0  11582-2 0  9999,2 52659  53.2171 259.6654 0001174  70.9428 289.1692 15.08859328 38184,6917.821,95.436,540.498,538.874,0.0
52659.0,STARLINK-3960,PAYLOAD,2023-01-18 19:24:46,15.08865904,0.0001182,53.217,258.1784,71.2517,288.8604,0.00094836,0.00014848,0.0,0 STARLINK-3960,1 52659U 22053D   23018.80886698  .00014848  00000-0  94836-3 0  9994,2 52659  53.2170 258.1784 0001182  71.2517 288.8604 15.08865904 38246,6917.801,95.436,540.484,538.849,0.0
52659.0,STARLINK-3960,PAYLOAD,2023-01-18 22:35:32,15.08869124,0.0001155999999999,53.2172,257.5832,73.5597,286.5523,0.00091899,0.0001438,0.0,0 STARLINK-3960,1 52659U 22053D   23018.94134422  .00014380  00000-0  91899-3 0  9997,2 52659  53.2172 257.5832 0001156  73.5597 286.5523 15.08869124 38253,6917.791,95.436,540.456,538.857,0.0
52659.0,STARLINK-3960,PAYLOAD,2023-01-19 19:15:33,15.08839345,0.0001453999999999,53.217,253.7189,92.7638,267.3521,0.00046357,7.097e-05,0.0,0 STARLINK-3960,1 52659U 22053D   23019.80247052  .00007097  00000-0  46357-3 0  9993,2 52659  53.2170 253.7189 0001454  92.7638 267.3521 15.08839345 38396,6917.882,95.438,540.753,538.742,0.0
52659.0,STARLINK-3960,PAYLOAD,2023-01-20 07:58:38,15.08837582,0.0001057,53.2167,251.3395,97.5593,262.5519,0.0004022999999999,6.12e-05,0.0,0 STARLINK-3960,1 52659U 22053D   23020.33239111  .00006120  00000-0  40230-3 0  9990,2 52659  53.2167 251.3395 0001057  97.5593 262.5519 15.08837582 38460,6917.888000000001,95.438,540.484,539.0219999999999,0.0
52659.0,STARLINK-3960,PAYLOAD,2023-01-20 14:20:11,15.08837203,0.0001091,53.2163,250.1506,100.5238,259.5877,0.00017987,2.576e-05,0.0,0 STARLINK-3960,1 52659U 22053D   23020.59735216  .00002576  00000-0  17987-3 0  9999,2 52659  53.2163 250.1506 0001091 100.5238 259.5877 15.08837203 38515,6917.889,95.438,540.509,538.999,0.0
52659.0,STARLINK-3960,PAYLOAD,2023-01-22 10:50:58,15.08836763,0.0001079,53.2159,241.8246,93.1917,266.9198,-3.6555e-06,-3.46e-06,0.0,0 STARLINK-3960,1 52659U 22053D   23022.45207082 -.00000346  00000-0 -36555-5 0  9990,2 52659  53.2159 241.8246 0001079  93.1917 266.9198 15.08836763 38793,6917.89,95.438,540.502,539.009,0.0
52659.0,STARLINK-3960,PAYLOAD,2023-01-23 20:14:05,15.08837971,0.0001175,53.2172,235.5776,92.9275,267.1851,6.2338e-05,7.04e-06,0.0,0 STARLINK-3960,1 52659U 22053D   23023.84311597  .00000704  00000-0  62338-4 0  9994,2 52659  53.2172 235.5776 0001175  92.9275 267.1851 15.08837971 39003,6917.887,95.438,540.564,538.939,0.0
52659.0,STARLINK-3960,PAYLOAD,2023-01-23 23:24:51,15.08845366,0.0001141,53.217,234.9849,86.2792,273.833,8.2741e-05,1.029e-05,0.0,0 STARLINK-3960,1 52659U 22053D   23023.97559032  .00001029  00000-0  82741-4 0  9997,2 52659  53.2170 234.9849 0001141  86.2792 273.8330 15.08845366 39023,6917.8640000000005,95.437,540.518,538.94,0.0
52659.0,STARLINK-3960,PAYLOAD,2023-01-25 07:12:33,15.08842367,0.0001008,53.2174,229.0354,98.0013,262.1094,7.124e-05,8.46e-06,0.0,0 STARLINK-3960,1 52659U 22053D   23025.30039096  .00000846  00000-0  71240-4 0  9997,2 52659  53.2174 229.0354 0001008  98.0013 262.1094 15.08842367 39220,6917.8730000000005,95.437,540.435,539.0409999999999,0.0
